{
    "links": {
        "self": "http://www.neowsapp.com/rest/v1/neo/3842680?api_key=iIulBulltgU6a56xZRHN4H3l9WmuAYTsLGpBGhQ2"
    },
    "id": "3842680",
    "neo_reference_id": "3842680",
    "name": "(2019 KK5)",
    "designation": "2019 KK5",
    "nasa_jpl_url": "http://ssd.jpl.nasa.gov/sbdb.cgi?sstr=3842680",
    "absolute_magnitude_h": 22.8,
    "estimated_diameter": {
        "kilometers": {
            "estimated_diameter_min": 0.0732073989,
            "estimated_diameter_max": 0.1636967205
        },
        "meters": {
            "estimated_diameter_min": 73.2073989347,
            "estimated_diameter_max": 163.696720474
        },
        "miles": {
            "estimated_diameter_min": 0.0454889547,
            "estimated_diameter_max": 0.1017163949
        },
        "feet": {
            "estimated_diameter_min": 240.181762721,
            "estimated_diameter_max": 537.0627483999
        }
    },
    "is_potentially_hazardous_asteroid": false,
    "close_approach_data": [
        {
            "close_approach_date": "2019-07-01",
            "close_approach_date_full": "2019-Jul-01 09:07",
            "epoch_date_close_approach": 1561972020000,
            "relative_velocity": {
                "kilometers_per_second": "15.2838503237",
                "kilometers_per_hour": "55021.8611651814",
                "miles_per_hour": "34188.4447889984"
            },
            "miss_distance": {
                "astronomical": "0.1820495039",
                "lunar": "70.8172570171",
                "kilometers": "27234218.017996693",
                "miles": "16922558.3669246434"
            },
            "orbiting_body": "Earth"
        },
        {
            "close_approach_date": "2021-10-05",
            "close_approach_date_full": "2021-Oct-05 17:43",
            "epoch_date_close_approach": 1633455780000,
            "relative_velocity": {
                "kilometers_per_second": "21.7135918233",
                "kilometers_per_hour": "78168.93056397",
                "miles_per_hour": "48571.1335495957"
            },
            "miss_distance": {
                "astronomical": "0.445195057",
                "lunar": "173.180877173",
                "kilometers": "66600232.26172859",
                "miles": "41383465.350650942"
            },
            "orbiting_body": "Earth"
        },
        {
            "close_approach_date": "2024-01-03",
            "close_approach_date_full": "2024-Jan-03 01:02",
            "epoch_date_close_approach": 1704243720000,
            "relative_velocity": {
                "kilometers_per_second": "20.9218855412",
                "kilometers_per_hour": "75318.7879482977",
                "miles_per_hour": "46800.1657670964"
            },
            "miss_distance": {
                "astronomical": "0.027152856",
                "lunar": "10.562460984",
                "kilometers": "4062009.42201672",
                "miles": "2524015.614681936"
            },
            "orbiting_body": "Earth"
        },
        {
            "close_approach_date": "2057-12-19",
            "close_approach_date_full": "2057-Dec-19 07:57",
            "epoch_date_close_approach": 2775974220000,
            "relative_velocity": {
                "kilometers_per_second": "14.4303854284",
                "kilometers_per_hour": "51949.3875422198",
                "miles_per_hour": "32279.3291647754"
            },
            "miss_distance": {
                "astronomical": "0.2067728697",
                "lunar": "80.4346463133",
                "kilometers": "30932780.880907539",
                "miles": "19220738.7618964782"
            },
            "orbiting_body": "Earth"
        }
    ],
    "orbital_data": {
        "orbit_id": "5",
        "orbit_determination_date": "2019-06-28 13:23:48",
        "first_observation_date": "2019-05-27",
        "last_observation_date": "2019-06-28",
        "data_arc_in_days": 32,
        "observations_used": 28,
        "orbit_uncertainty": "7",
        "minimum_orbit_intersection": ".0164353",
        "jupiter_tisserand_invariant": "3.994",
        "epoch_osculation": "2459000.5",
        "eccentricity": ".6640155859905635",
        "semi_major_axis": "1.650351612709393",
        "inclination": "2.524117889497021",
        "ascending_node_longitude": "66.49396238737842",
        "orbital_period": "774.3960868204787",
        "perihelion_distance": ".5544924195056939",
        "perihelion_argument": "299.4666794903018",
        "aphelion_distance": "2.746210805913093",
        "perihelion_time": "2458715.886213050163",
        "mean_anomaly": "132.3107968205602",
        "mean_motion": ".4648783821701511",
        "equinox": "J2000",
        "orbit_class": {
            "orbit_class_type": "APO",
            "orbit_class_description": "Near-Earth asteroid orbits which cross the Earth’s orbit similar to that of 1862 Apollo",
            "orbit_class_range": "a (semi-major axis) > 1.0 AU; q (perihelion) < 1.017 AU"
        }
    },
    "is_sentry_object": false
}